ESEO                    
1 43792U 18099AL  26068.65529582  .00002831  00000+0  20935-3 0  9991
2 43792  97.4113 110.2601 0011063 317.6000  42.4371 15.03914518396849
STARLINK-35054          
1 65383U 25191E   26068.61488862  .00001598  00000+0  11497-3 0  9995
2 65383  97.6016 301.3840 0002304  92.8669 267.2821 15.05645356 30252
