[{"OBJECT_NAME":"ESEO","OBJECT_ID":"2018-099AL","EPOCH":"2026-03-09T15:43:37.559712","MEAN_MOTION":15.03914518,"ECCENTRICITY":0.00110626,"INCLINATION":97.4113,"RA_OF_ASC_NODE":110.2601,"ARG_OF_PERICENTER":317.6,"MEAN_ANOMALY":42.4371,"EPHEMERIS_TYPE":0,"CLASSIFICATION_TYPE":"U","NORAD_CAT_ID":43792,"ELEMENT_SET_NO":999,"REV_AT_EPOCH":39684,"BSTAR":0.00020934561,"MEAN_MOTION_DOT":2.831e-5,"MEAN_MOTION_DDOT":0},{"OBJECT_NAME":"STARLINK-35054","OBJECT_ID":"2025-191E","EPOCH":"2026-03-09T14:45:26.376768","MEAN_MOTION":15.05645356,"ECCENTRICITY":0.0002304,"INCLINATION":97.6016,"RA_OF_ASC_NODE":301.384,"ARG_OF_PERICENTER":92.8669,"MEAN_ANOMALY":267.2821,"EPHEMERIS_TYPE":0,"CLASSIFICATION_TYPE":"U","NORAD_CAT_ID":65383,"ELEMENT_SET_NO":999,"REV_AT_EPOCH":3025,"BSTAR":0.00011497,"MEAN_MOTION_DOT":1.598e-5,"MEAN_MOTION_DDOT":0}]
